start=new Date('2022-02-22T00:00:00.000Z').valueOf();
sats=[{"REV_AT_EPOCH":"5779","OBJECT_NAME":"STARLINK-2027","LAUNCH_DATE":"2021-02-16","ELEMENT_SET_NO":"999","MEAN_ANOMALY":"271.0725","TIME_SYSTEM":"UTC","OBJECT_ID":"2021-012AB","SEMIMAJOR_AXIS":"6925.338","GP_ID":"196572484","MEAN_MOTION_DDOT":"0.0000000000000","ECCENTRICITY":"0.00012050","OBJECT_TYPE":"PAYLOAD","REF_FRAME":"TEME","PERIAPSIS":"546.369","SITE":"AFETR","TLE_LINE1":"1 47645U 21012AB  22052.88127015  .00000354  00000-0  42640-4 0  9997","ARG_OF_PERICENTER":"89.0402","APOAPSIS":"548.038","EPHEMERIS_TYPE":"0","CLASSIFICATION_TYPE":"U","BSTAR":"0.00004264000000","DECAY_DATE":null,"NORAD_CAT_ID":"47645","RCS_SIZE":"LARGE","MEAN_MOTION":"15.06403422","EPOCH":"2022-02-21T21:09:01.740960","PERIOD":"95.592","MEAN_MOTION_DOT":"0.00000354","RA_OF_ASC_NODE":"191.2608","FILE":"3312023","INCLINATION":"53.0535","MEAN_ELEMENT_THEORY":"SGP4","TLE_LINE2":"2 47645  53.0535 191.2608 0001205  89.0402 271.0725 15.06403422 57796","CENTER_NAME":"EARTH","COUNTRY_CODE":"US"},{"TLE_LINE2":"2 47646  53.0545 157.2301 0001635  49.7254 310.3878 15.06402168 58259","COUNTRY_CODE":"US","CENTER_NAME":"EARTH","INCLINATION":"53.0545","FILE":"3312023","MEAN_ELEMENT_THEORY":"SGP4","RA_OF_ASC_NODE":"157.2301","MEAN_MOTION_DOT":"0.00000840","EPOCH":"2022-02-21T16:03:10.006848","PERIOD":"95.592","MEAN_MOTION":"15.06402168","RCS_SIZE":"LARGE","EPHEMERIS_TYPE":"0","APOAPSIS":"548.339","NORAD_CAT_ID":"47646","DECAY_DATE":null,"CLASSIFICATION_TYPE":"U","BSTAR":"0.00007530600000","SITE":"AFETR","TLE_LINE1":"1 47646U 21012AC  22052.66886582  .00000840  00000-0  75306-4 0  9990","ARG_OF_PERICENTER":"49.7254","REF_FRAME":"TEME","OBJECT_TYPE":"PAYLOAD","PERIAPSIS":"546.075","MEAN_MOTION_DDOT":"0.0000000000000","ECCENTRICITY":"0.00016350","GP_ID":"196572739","MEAN_ANOMALY":"310.3878","SEMIMAJOR_AXIS":"6925.342","TIME_SYSTEM":"UTC","OBJECT_ID":"2021-012AC","LAUNCH_DATE":"2021-02-16","REV_AT_EPOCH":"5825","OBJECT_NAME":"STARLINK-2028","ELEMENT_SET_NO":"999"},{"ECCENTRICITY":"0.00014080","MEAN_MOTION_DDOT":"0.0000000000000","PERIAPSIS":"546.255","REF_FRAME":"TEME","OBJECT_TYPE":"PAYLOAD","ARG_OF_PERICENTER":"62.3735","SITE":"AFETR","TLE_LINE1":"1 47647U 21012AD  22052.82785251  .00000297  00000-0  38855-4 0  9994","NORAD_CAT_ID":"47647","DECAY_DATE":null,"BSTAR":"0.00003885500000","CLASSIFICATION_TYPE":"U","EPHEMERIS_TYPE":"0","APOAPSIS":"548.205","ELEMENT_SET_NO":"999","LAUNCH_DATE":"2021-02-16","REV_AT_EPOCH":"5739","OBJECT_NAME":"STARLINK-2030","SEMIMAJOR_AXIS":"6925.365","TIME_SYSTEM":"UTC","OBJECT_ID":"2021-012AD","MEAN_ANOMALY":"297.7397","GP_ID":"196571486","RA_OF_ASC_NODE":"221.5186","MEAN_MOTION_DOT":"0.00000297","MEAN_ELEMENT_THEORY":"SGP4","INCLINATION":"53.0552","FILE":"3312023","CENTER_NAME":"EARTH","COUNTRY_CODE":"US","TLE_LINE2":"2 47647  53.0552 221.5186 0001408  62.3735 297.7397 15.06394752 57394","RCS_SIZE":"LARGE","PERIOD":"95.592","EPOCH":"2022-02-21T19:52:06.456864","MEAN_MOTION":"15.06394752"},{"REF_FRAME":"TEME","OBJECT_TYPE":"PAYLOAD","PERIAPSIS":"546.190","MEAN_MOTION_DDOT":"0.0000000000000","ECCENTRICITY":"0.00014990","EPHEMERIS_TYPE":"0","APOAPSIS":"548.266","NORAD_CAT_ID":"47648","DECAY_DATE":null,"CLASSIFICATION_TYPE":"U","BSTAR":"0.00005172200000","TLE_LINE1":"1 47648U 21012AE  22052.81863512  .00000489  00000-0  51722-4 0  9992","SITE":"AFETR","ARG_OF_PERICENTER":"61.6315","MEAN_ANOMALY":"298.4825","SEMIMAJOR_AXIS":"6925.363","TIME_SYSTEM":"UTC","OBJECT_ID":"2021-012AE","LAUNCH_DATE":"2021-02-16","OBJECT_NAME":"STARLINK-2031","REV_AT_EPOCH":"5767","ELEMENT_SET_NO":"999","GP_ID":"196571735","INCLINATION":"53.0555","FILE":"3312023","MEAN_ELEMENT_THEORY":"SGP4","RA_OF_ASC_NODE":"201.5565","MEAN_MOTION_DOT":"0.00000489","TLE_LINE2":"2 47648  53.0555 201.5565 0001499  61.6315 298.4825 15.06395380 57676","CENTER_NAME":"EARTH","COUNTRY_CODE":"US","RCS_SIZE":"MEDIUM","PERIOD":"95.592","EPOCH":"2022-02-21T19:38:50.074368","MEAN_MOTION":"15.06395380"},{"TLE_LINE2":"2 47649  53.0544 202.1332 0001541  65.9968 294.1182 15.06396651 57652","COUNTRY_CODE":"US","CENTER_NAME":"EARTH","MEAN_MOTION_DOT":"-0.00000970","RA_OF_ASC_NODE":"202.1332","FILE":"3312023","INCLINATION":"53.0544","MEAN_ELEMENT_THEORY":"SGP4","MEAN_MOTION":"15.06396651","PERIOD":"95.592","EPOCH":"2022-02-21T16:33:03.855744","RCS_SIZE":"LARGE","SITE":"AFETR","TLE_LINE1":"1 47649U 21012AF  22052.68962796 -.00000970  00000-0 -46248-4 0  9996","ARG_OF_PERICENTER":"65.9968","APOAPSIS":"548.291","EPHEMERIS_TYPE":"0","BSTAR":"-0.00004624800000","CLASSIFICATION_TYPE":"U","DECAY_DATE":null,"NORAD_CAT_ID":"47649","MEAN_MOTION_DDOT":"0.0000000000000","ECCENTRICITY":"0.00015410","OBJECT_TYPE":"PAYLOAD","REF_FRAME":"TEME","PERIAPSIS":"546.157","GP_ID":"196572985","OBJECT_NAME":"STARLINK-2032","REV_AT_EPOCH":"5765","LAUNCH_DATE":"2021-02-16","ELEMENT_SET_NO":"999","MEAN_ANOMALY":"294.1182","TIME_SYSTEM":"UTC","OBJECT_ID":"2021-012AF","SEMIMAJOR_AXIS":"6925.359"},{"GP_ID":"196573240","TIME_SYSTEM":"UTC","OBJECT_ID":"2021-012AG","SEMIMAJOR_AXIS":"6925.368","MEAN_ANOMALY":"284.9528","ELEMENT_SET_NO":"999","REV_AT_EPOCH":"5763","OBJECT_NAME":"STARLINK-2033","LAUNCH_DATE":"2021-02-16","BSTAR":"0.00003901500000","CLASSIFICATION_TYPE":"U","NORAD_CAT_ID":"47650","DECAY_DATE":null,"EPHEMERIS_TYPE":"0","APOAPSIS":"548.191","ARG_OF_PERICENTER":"75.1614","TLE_LINE1":"1 47650U 21012AG  22052.67488628  .00000300  00000-0  39015-4 0  9993","SITE":"AFETR","PERIAPSIS":"546.274","REF_FRAME":"TEME","OBJECT_TYPE":"PAYLOAD","ECCENTRICITY":"0.00013840","MEAN_MOTION_DDOT":"0.0000000000000","MEAN_MOTION":"15.06393805","EPOCH":"2022-02-21T16:11:50.174592","PERIOD":"95.593","RCS_SIZE":"LARGE","COUNTRY_CODE":"US","CENTER_NAME":"EARTH","TLE_LINE2":"2 47650  53.0538 202.1997 0001384  75.1614 284.9528 15.06393805 57637","MEAN_ELEMENT_THEORY":"SGP4","FILE":"3312023","INCLINATION":"53.0538","MEAN_MOTION_DOT":"0.00000300","RA_OF_ASC_NODE":"202.1997"},{"MEAN_MOTION":"15.06400907","PERIOD":"95.592","EPOCH":"2022-02-21T20:11:59.140608","RCS_SIZE":"LARGE","TLE_LINE2":"2 47651  53.0543 221.4547 0001334  76.8808 283.2330 15.06400907 57395","CENTER_NAME":"EARTH","COUNTRY_CODE":"US","MEAN_MOTION_DOT":"0.00001854","RA_OF_ASC_NODE":"221.4547","FILE":"3312023","INCLINATION":"53.0543","MEAN_ELEMENT_THEORY":"SGP4","GP_ID":"196571987","REV_AT_EPOCH":"5739","OBJECT_NAME":"STARLINK-2035","LAUNCH_DATE":"2021-02-16","ELEMENT_SET_NO":"999","MEAN_ANOMALY":"283.2330","OBJECT_ID":"2021-012AH","TIME_SYSTEM":"UTC","SEMIMAJOR_AXIS":"6925.346","TLE_LINE1":"1 47651U 21012AH  22052.84165672  .00001854  00000-0  14332-3 0  9993","SITE":"AFETR","ARG_OF_PERICENTER":"76.8808","EPHEMERIS_TYPE":"0","APOAPSIS":"548.135","CLASSIFICATION_TYPE":"U","BSTAR":"0.00014332000000","DECAY_DATE":null,"NORAD_CAT_ID":"47651","MEAN_MOTION_DDOT":"0.0000000000000","ECCENTRICITY":"0.00013340","REF_FRAME":"TEME","OBJECT_TYPE":"PAYLOAD","PERIAPSIS":"546.287"},{"GP_ID":"196572236","LAUNCH_DATE":"2021-02-16","OBJECT_NAME":"STARLINK-2036","REV_AT_EPOCH":"5739","ELEMENT_SET_NO":"999","MEAN_ANOMALY":"299.5114","SEMIMAJOR_AXIS":"6925.356","TIME_SYSTEM":"UTC","OBJECT_ID":"2021-012AJ","TLE_LINE1":"1 47652U 21012AJ  22052.86840080  .00000070  00000-0  23569-4 0  9991","SITE":"AFETR","ARG_OF_PERICENTER":"60.6031","EPHEMERIS_TYPE":"0","APOAPSIS":"548.305","NORAD_CAT_ID":"47652","DECAY_DATE":null,"CLASSIFICATION_TYPE":"U","BSTAR":"0.00002356900000","MEAN_MOTION_DDOT":"0.0000000000000","ECCENTRICITY":"0.00015660","OBJECT_TYPE":"PAYLOAD","REF_FRAME":"TEME","PERIAPSIS":"546.136","PERIOD":"95.592","EPOCH":"2022-02-21T20:50:29.829120","MEAN_MOTION":"15.06397620","RCS_SIZE":"LARGE","TLE_LINE2":"2 47652  53.0549 221.3331 0001566  60.6031 299.5114 15.06397620 57395","COUNTRY_CODE":"US","CENTER_NAME":"EARTH","RA_OF_ASC_NODE":"221.3331","MEAN_MOTION_DOT":"0.00000070","INCLINATION":"53.0549","FILE":"3312023","MEAN_ELEMENT_THEORY":"SGP4"},{"GP_ID":"196572485","MEAN_ANOMALY":"304.0198","OBJECT_ID":"2021-012AK","TIME_SYSTEM":"UTC","SEMIMAJOR_AXIS":"6925.341","OBJECT_NAME":"STARLINK-2037","REV_AT_EPOCH":"5766","LAUNCH_DATE":"2021-02-16","ELEMENT_SET_NO":"999","APOAPSIS":"548.288","EPHEMERIS_TYPE":"0","CLASSIFICATION_TYPE":"U","BSTAR":"0.00010560000000","NORAD_CAT_ID":"47653","DECAY_DATE":null,"SITE":"AFETR","TLE_LINE1":"1 47653U 21012AK  22052.86286552  .00001292  00000-0  10560-3 0  9993","ARG_OF_PERICENTER":"56.0939","REF_FRAME":"TEME","OBJECT_TYPE":"PAYLOAD","PERIAPSIS":"546.124","MEAN_MOTION_DDOT":"0.0000000000000","ECCENTRICITY":"0.00015620","MEAN_MOTION":"15.06402518","EPOCH":"2022-02-21T20:42:31.580928","PERIOD":"95.592","RCS_SIZE":"LARGE","TLE_LINE2":"2 47653  53.0540 201.3422 0001562  56.0939 304.0198 15.06402518 57665","COUNTRY_CODE":"US","CENTER_NAME":"EARTH","FILE":"3312023","INCLINATION":"53.0540","MEAN_ELEMENT_THEORY":"SGP4","MEAN_MOTION_DOT":"0.00001292","RA_OF_ASC_NODE":"201.3422"},{"INCLINATION":"53.0546","FILE":"3312023","MEAN_ELEMENT_THEORY":"SGP4","RA_OF_ASC_NODE":"221.8996","MEAN_MOTION_DOT":"0.00000261","TLE_LINE2":"2 47654  53.0546 221.8996 0001444  69.9875 290.1269 15.06405923 57371","CENTER_NAME":"EARTH","COUNTRY_CODE":"US","RCS_SIZE":"LARGE","PERIOD":"95.592","EPOCH":"2022-02-21T17:44:42.797472","MEAN_MOTION":"15.06405923","OBJECT_TYPE":"PAYLOAD","REF_FRAME":"TEME","PERIAPSIS":"546.195","MEAN_MOTION_DDOT":"0.0000000000000","ECCENTRICITY":"0.00014440","APOAPSIS":"548.195","EPHEMERIS_TYPE":"0","NORAD_CAT_ID":"47654","DECAY_DATE":null,"CLASSIFICATION_TYPE":"U","BSTAR":"0.00003640300000","TLE_LINE1":"1 47654U 21012AL  22052.73938423  .00000261  00000-0  36403-4 0  9991","SITE":"AFETR","ARG_OF_PERICENTER":"69.9875","MEAN_ANOMALY":"290.1269","SEMIMAJOR_AXIS":"6925.330","TIME_SYSTEM":"UTC","OBJECT_ID":"2021-012AL","LAUNCH_DATE":"2021-02-16","REV_AT_EPOCH":"5737","OBJECT_NAME":"STARLINK-2038","ELEMENT_SET_NO":"999","GP_ID":"196572740"}];
